[{"OBJECT_NAME":"CS2","OBJECT_ID":"2021-088C","EPOCH":"2026-03-09T17:38:11.846112","MEAN_MOTION":15.3325593,"ECCENTRICITY":0.00116375,"INCLINATION":97.3928,"RA_OF_ASC_NODE":134.2907,"ARG_OF_PERICENTER":82.3491,"MEAN_ANOMALY":277.9072,"EPHEMERIS_TYPE":0,"CLASSIFICATION_TYPE":"U","NORAD_CAT_ID":49262,"ELEMENT_SET_NO":999,"REV_AT_EPOCH":24526,"BSTAR":0.0005617759,"MEAN_MOTION_DOT":0.00018033,"MEAN_MOTION_DDOT":0},{"OBJECT_NAME":"STARLINK-34885","OBJECT_ID":"2025-189F","EPOCH":"2026-03-09T16:08:44.062080","MEAN_MOTION":15.3019596,"ECCENTRICITY":9.665e-5,"INCLINATION":53.1575,"RA_OF_ASC_NODE":206.8608,"ARG_OF_PERICENTER":93.0634,"MEAN_ANOMALY":267.0477,"EPHEMERIS_TYPE":0,"CLASSIFICATION_TYPE":"U","NORAD_CAT_ID":65328,"ELEMENT_SET_NO":999,"REV_AT_EPOCH":3104,"BSTAR":0.00080553649,"MEAN_MOTION_DOT":0.00023571,"MEAN_MOTION_DDOT":0}]
